*******************************************************************************
Ephemeris / WWW_USER Wed Apr  4 23:34:37 2018 Pasadena, USA      / Horizons    
*******************************************************************************
Target body name: 120347 Salacia (2004 SB60)      {source: JPL#15}
Center body name: Solar System Barycenter (0)     {source: DE431}
Center-site name: BODY CENTER
*******************************************************************************
Start time      : A.D. 2000-Jan-01 00:00:00.0000 TDB
Stop  time      : A.D. 2005-Jan-01 00:00:00.0000 TDB
Step-size       : 7200 minutes
*******************************************************************************
Center geodetic : 0.00000000,0.00000000,0.0000000 {E-lon(deg),Lat(deg),Alt(km)}
Center cylindric: 0.00000000,0.00000000,0.0000000 {E-lon(deg),Dxy(km),Dz(km)}
Center radii    : (undefined)                                                  
Small perturbers: Yes                             {source: SB431-N16}
Output units    : AU-D                                                         
Output type     : GEOMETRIC cartesian states
Output format   : 2 (position and velocity)
Reference frame : ICRF/J2000.0                                                 
Coordinate systm: Ecliptic and Mean Equinox of Reference Epoch                 
*******************************************************************************
Initial IAU76/J2000 heliocentric ecliptic osculating elements (au, days, deg.):
  EPOCH=  2454064.5 ! 2006-Nov-25.00 (TDB)         Residual RMS= .26273        
   EC= .108969093642623    QR= 37.41808061015238   TP= 2424304.3503005453      
   OM= 279.9974607709902   W=  309.751991297518    IN= 23.91785225041187       
  Equivalent ICRF heliocentric equatorial cartesian coordinates (au, au/d):
   X= 3.953928029028918E+01  Y=-1.490870488879786E+01  Z= 1.159866652090058E+01
  VX= 6.402597234175194E-04 VY= 2.030605672110378E-03 VZ= 1.387854678595959E-03
Asteroid physical parameters (km, seconds, rotational period in hours):        
   GM= n.a.                RAD= n.a.               ROTPER= 6.09                
   H= 4.1                  G= .150                 B-V= n.a.                   
                           ALBEDO= n.a.            STYP= n.a.                  
*******************************************************************************
JDTDB
   X     Y     Z
   VX    VY    VZ
*******************************************************************************
$$SOE
2453209.500000000 = A.D. 2004-Jul-23 00:00:00.0000 TDB 
   3.894790857955211E+01 -1.111673261345480E+01  1.615239495681458E+01
   7.541709705756617E-04  2.388710857193199E-03  5.153156687446198E-04
2453214.500000000 = A.D. 2004-Jul-28 00:00:00.0000 TDB 
   3.895167769442918E+01 -1.110478856289375E+01  1.615497081339229E+01
   7.534749792306155E-04  2.388909328775825E-03  5.150269588839961E-04
2453219.500000000 = A.D. 2004-Aug-02 00:00:00.0000 TDB 
   3.895544332933423E+01 -1.109284352055152E+01  1.615754522636893E+01
   7.527789817797449E-04  2.389107569667836E-03  5.147382283290305E-04
2453224.500000000 = A.D. 2004-Aug-07 00:00:00.0000 TDB 
   3.895920548423690E+01 -1.108089748758152E+01  1.616011819564113E+01
   7.520829782832763E-04  2.389305579892914E-03  5.144494771087727E-04
2453229.500000000 = A.D. 2004-Aug-12 00:00:00.0000 TDB 
   3.896296415910709E+01 -1.106895046513701E+01  1.616268972110563E+01
   7.513869688009548E-04  2.389503359474297E-03  5.141607052520028E-04
2453234.500000000 = A.D. 2004-Aug-17 00:00:00.0000 TDB 
   3.896671935391503E+01 -1.105700245437114E+01  1.616525980265931E+01
   7.506909533928883E-04  2.389700908435561E-03  5.138719127877236E-04
2453239.500000000 = A.D. 2004-Aug-22 00:00:00.0000 TDB 
   3.897047106863124E+01 -1.104505345643698E+01  1.616782844019921E+01
   7.499949321190553E-04  2.389898226800162E-03  5.135830997448758E-04
2453244.500000000 = A.D. 2004-Aug-27 00:00:00.0000 TDB 
   3.897421930322655E+01 -1.103310347248743E+01  1.617039563362251E+01
   7.492989050394102E-04  2.390095314591535E-03  5.132942661523977E-04
2453249.500000000 = A.D. 2004-Sep-01 00:00:00.0000 TDB 
   3.897796405767205E+01 -1.102115250367531E+01  1.617296138282653E+01
   7.486028722140415E-04  2.390292171833075E-03  5.130054120393535E-04
2453254.500000000 = A.D. 2004-Sep-06 00:00:00.0000 TDB 
   3.898170533193921E+01 -1.100920055115331E+01  1.617552568770874E+01
   7.479068337023315E-04  2.390488798548235E-03  5.127165374342492E-04
2453259.500000000 = A.D. 2004-Sep-11 00:00:00.0000 TDB 
   3.898544312599970E+01 -1.099724761607400E+01  1.617808854816677E+01
   7.472107895642402E-04  2.390685194760378E-03  5.124276423660799E-04
2453264.500000000 = A.D. 2004-Sep-16 00:00:00.0000 TDB 
   3.898917743982557E+01 -1.098529369958984E+01  1.618064996409835E+01
   7.465147398595020E-04  2.390881360492868E-03  5.121387268636736E-04
2453269.500000000 = A.D. 2004-Sep-21 00:00:00.0000 TDB 
   3.899290827338911E+01 -1.097333880285316E+01  1.618320993540139E+01
   7.458186846478639E-04  2.391077295768884E-03  5.118497909559193E-04
2453274.500000000 = A.D. 2004-Sep-26 00:00:00.0000 TDB 
   3.899663562666296E+01 -1.096138292701620E+01  1.618576846197395E+01
   7.451226239888280E-04  2.391273000612199E-03  5.115608346714016E-04
2453279.500000000 = A.D. 2004-Oct-01 00:00:00.0000 TDB 
   3.900035949962002E+01 -1.094942607323106E+01  1.618832554371419E+01
   7.444265579420193E-04  2.391468475046063E-03  5.112718580389226E-04
2453284.500000000 = A.D. 2004-Oct-06 00:00:00.0000 TDB 
   3.900407989223351E+01 -1.093746824264971E+01  1.619088118052047E+01
   7.437304865669664E-04  2.391663719093872E-03  5.109828610871908E-04
2453289.500000000 = A.D. 2004-Oct-11 00:00:00.0000 TDB 
   3.900779680447692E+01 -1.092550943642405E+01  1.619343537229124E+01
   7.430344099231491E-04  2.391858732779019E-03  5.106938438448896E-04
2453294.500000000 = A.D. 2004-Oct-16 00:00:00.0000 TDB 
   3.901151023632406E+01 -1.091354965570583E+01  1.619598811892515E+01
   7.423383280699268E-04  2.392053516124865E-03  5.104048063406213E-04
2453299.500000000 = A.D. 2004-Oct-21 00:00:00.0000 TDB 
   3.901522018774903E+01 -1.090158890164667E+01  1.619853942032093E+01
   7.416422410669629E-04  2.392248069154915E-03  5.101157486032288E-04
2453304.500000000 = A.D. 2004-Oct-26 00:00:00.0000 TDB 
   3.901892665872625E+01 -1.088962717539810E+01  1.620108927637751E+01
   7.409461489735503E-04  2.392442391892539E-03  5.098266706612857E-04
2453309.500000000 = A.D. 2004-Oct-31 00:00:00.0000 TDB 
   3.902262964923039E+01 -1.087766447811152E+01  1.620363768699392E+01
   7.402500518490436E-04  2.392636484361152E-03  5.095375725434250E-04
2453314.500000000 = A.D. 2004-Nov-05 00:00:00.0000 TDB 
   3.902632915923645E+01 -1.086570081093822E+01  1.620618465206936E+01
   7.395539497527118E-04  2.392830346584208E-03  5.092484542782134E-04
2453319.500000000 = A.D. 2004-Nov-10 00:00:00.0000 TDB 
   3.903002518871973E+01 -1.085373617502938E+01  1.620873017150317E+01
   7.388578427439707E-04  2.393023978585019E-03  5.089593158943820E-04
2453324.500000000 = A.D. 2004-Nov-15 00:00:00.0000 TDB 
   3.903371773765580E+01 -1.084177057153604E+01  1.621127424519482E+01
   7.381617308820407E-04  2.393217380387021E-03  5.086701574204903E-04
2453329.500000000 = A.D. 2004-Nov-20 00:00:00.0000 TDB 
   3.903740680602056E+01 -1.082980400160914E+01  1.621381687304394E+01
   7.374656142261557E-04  2.393410552013614E-03  5.083809788851292E-04
2453334.500000000 = A.D. 2004-Nov-25 00:00:00.0000 TDB 
   3.904109239379017E+01 -1.081783646639950E+01  1.621635805495029E+01
   7.367694928355736E-04  2.393603493488261E-03  5.080917803169114E-04
2453339.500000000 = A.D. 2004-Nov-30 00:00:00.0000 TDB 
   3.904477450094112E+01 -1.080586796705781E+01  1.621889779081377E+01
   7.360733667693221E-04  2.393796204834197E-03  5.078025617443207E-04
2453344.500000000 = A.D. 2004-Dec-05 00:00:00.0000 TDB 
   3.904845312745017E+01 -1.079389850473467E+01  1.622143608053444E+01
   7.353772360865503E-04  2.393988686074832E-03  5.075133231959186E-04
2453349.500000000 = A.D. 2004-Dec-10 00:00:00.0000 TDB 
   3.905212827329439E+01 -1.078192808058053E+01  1.622397292401248E+01
   7.346811008463252E-04  2.394180937233520E-03  5.072240647002247E-04
2453354.500000000 = A.D. 2004-Dec-15 00:00:00.0000 TDB 
   3.905579993845113E+01 -1.076995669574576E+01  1.622650832114824E+01
   7.339849611076744E-04  2.394372958333605E-03  5.069347862857423E-04
2453359.500000000 = A.D. 2004-Dec-20 00:00:00.0000 TDB 
   3.905946812289807E+01 -1.075798435138058E+01  1.622904227184218E+01
   7.332888169296598E-04  2.394564749398351E-03  5.066454879810368E-04
2453364.500000000 = A.D. 2004-Dec-25 00:00:00.0000 TDB 
   3.906313282661312E+01 -1.074601104863512E+01  1.623157477599494E+01
   7.325926683709932E-04  2.394756310451324E-03  5.063561698143238E-04
2453369.500000000 = A.D. 2004-Dec-30 00:00:00.0000 TDB 
   3.906679404957458E+01 -1.073403678865938E+01  1.623410583350728E+01
   7.318965154906201E-04  2.394947641515809E-03  5.060668318140933E-04
